STARLINK-35663          
1 66491U 25263G   25343.16668980 -.00346867  00000+0 -61315-2 0  9998
2 66491  43.0006 146.0343 0001715 274.0149 212.3996 15.50763335  5064
STARLINK-35673          
1 66492U 25263H   25343.16668980 -.02137303  00000+0 -41088-1 0  9998
2 66492  43.0004 146.0286 0001477 285.3998 202.9333 15.50599743  5061
STARLINK-35597          
1 66493U 25263J   25343.16668980 -.00305907  00000+0 -53837-2 0  9990
2 66493  43.0006 146.0243 0001619 265.2577 224.9861 15.50739066  5069
STARLINK-35689          
1 66494U 25263K   25343.16668980 -.00157313  00000+0 -27241-2 0  9997
2 66494  43.0007 146.0398 0001726 265.4942 219.0372 15.50636616  5068
STARLINK-35832          
1 66495U 25263L   25343.16668980 -.00101969  00000+0 -17530-2 0  9994
2 66495  43.0007 146.0189 0001735 280.1298 212.0676 15.50610569  5064
STARLINK-35909          
1 66496U 25263M   25343.16668980 -.00164432  00000+0 -28479-2 0  9993
2 66496  43.0008 146.0140 0001729 267.9078 226.1820 15.50659724  5068
STARLINK-35899          
1 66497U 25263N   25343.16668980 -.00106739  00000+0 -18360-2 0  9998
2 66497  43.0006 146.0086 0001846 277.2834 218.7446 15.50615086  5064
STARLINK-35907          
1 66498U 25263P   25343.16668980 -.02115740  00000+0 -40129-1 0  9990
2 66498  43.0004 146.0034 0000914 252.3636 245.5319 15.50942506  5062
STARLINK-35816          
1 66499U 25263Q   25343.16668980 -.00206651  00000+0 -35969-2 0  9998
2 66499  43.0005 145.9951 0001461 270.0217 231.7280 15.50683112  5069
STARLINK-35894          
1 66500U 25263R   25343.16668980 -.00119878  00000+0 -20643-2 0  9998
2 66500  43.0005 146.1090 0001086 284.7622 170.2270 15.50642718  5067
STARLINK-35897          
1 66501U 25263S   25343.16668980 -.00146078  00000+0 -25258-2 0  9998
2 66501  43.0008 145.9906 0001869 280.4672 223.2296 15.50633433  5062
STARLINK-35922          
1 66502U 25263T   25343.16668980 -.00115007  00000+0 -19804-2 0  9997
2 66502  43.0005 145.9746 0001793 275.3309 234.1119 15.50620475  5065
