CCSDS_OMM_VERS = 2.0
CREATION_DATE  = 
ORIGINATOR     = 

OBJECT_NAME    = STARLINK-35663
OBJECT_ID      = 2025-263G
CENTER_NAME    = EARTH
REF_FRAME      = TEME
TIME_SYSTEM    = UTC
MEAN_ELEMENT_THEORY = SGP/SGP4

EPOCH          = 2025-12-09T04:00:01.998720
MEAN_MOTION    = 15.50763335
ECCENTRICITY   = .0001715
INCLINATION    = 43.0006
RA_OF_ASC_NODE = 146.0343
ARG_OF_PERICENTER = 274.0149
MEAN_ANOMALY   = 212.3996

EPHEMERIS_TYPE = 0
CLASSIFICATION_TYPE = U
NORAD_CAT_ID   = 66491
ELEMENT_SET_NO = 999
REV_AT_EPOCH   = 506
BSTAR          = -.61315E-2
MEAN_MOTION_DOT = -.346867E-2
MEAN_MOTION_DDOT = 0

CCSDS_OMM_VERS = 2.0
CREATION_DATE  = 
ORIGINATOR     = 

OBJECT_NAME    = STARLINK-35673
OBJECT_ID      = 2025-263H
CENTER_NAME    = EARTH
REF_FRAME      = TEME
TIME_SYSTEM    = UTC
MEAN_ELEMENT_THEORY = SGP/SGP4

EPOCH          = 2025-12-09T04:00:01.998720
MEAN_MOTION    = 15.50599743
ECCENTRICITY   = .0001477
INCLINATION    = 43.0004
RA_OF_ASC_NODE = 146.0286
ARG_OF_PERICENTER = 285.3998
MEAN_ANOMALY   = 202.9333

EPHEMERIS_TYPE = 0
CLASSIFICATION_TYPE = U
NORAD_CAT_ID   = 66492
ELEMENT_SET_NO = 999
REV_AT_EPOCH   = 506
BSTAR          = -.41088E-1
MEAN_MOTION_DOT = -.2137303E-1
MEAN_MOTION_DDOT = 0

CCSDS_OMM_VERS = 2.0
CREATION_DATE  = 
ORIGINATOR     = 

OBJECT_NAME    = STARLINK-35597
OBJECT_ID      = 2025-263J
CENTER_NAME    = EARTH
REF_FRAME      = TEME
TIME_SYSTEM    = UTC
MEAN_ELEMENT_THEORY = SGP/SGP4

EPOCH          = 2025-12-09T04:00:01.998720
MEAN_MOTION    = 15.50739066
ECCENTRICITY   = .0001619
INCLINATION    = 43.0006
RA_OF_ASC_NODE = 146.0243
ARG_OF_PERICENTER = 265.2577
MEAN_ANOMALY   = 224.9861

EPHEMERIS_TYPE = 0
CLASSIFICATION_TYPE = U
NORAD_CAT_ID   = 66493
ELEMENT_SET_NO = 999
REV_AT_EPOCH   = 506
BSTAR          = -.53837E-2
MEAN_MOTION_DOT = -.305907E-2
MEAN_MOTION_DDOT = 0

CCSDS_OMM_VERS = 2.0
CREATION_DATE  = 
ORIGINATOR     = 

OBJECT_NAME    = STARLINK-35689
OBJECT_ID      = 2025-263K
CENTER_NAME    = EARTH
REF_FRAME      = TEME
TIME_SYSTEM    = UTC
MEAN_ELEMENT_THEORY = SGP/SGP4

EPOCH          = 2025-12-09T04:00:01.998720
MEAN_MOTION    = 15.50636616
ECCENTRICITY   = .0001726
INCLINATION    = 43.0007
RA_OF_ASC_NODE = 146.0398
ARG_OF_PERICENTER = 265.4942
MEAN_ANOMALY   = 219.0372

EPHEMERIS_TYPE = 0
CLASSIFICATION_TYPE = U
NORAD_CAT_ID   = 66494
ELEMENT_SET_NO = 999
REV_AT_EPOCH   = 506
BSTAR          = -.27241E-2
MEAN_MOTION_DOT = -.157313E-2
MEAN_MOTION_DDOT = 0

CCSDS_OMM_VERS = 2.0
CREATION_DATE  = 
ORIGINATOR     = 

OBJECT_NAME    = STARLINK-35832
OBJECT_ID      = 2025-263L
CENTER_NAME    = EARTH
REF_FRAME      = TEME
TIME_SYSTEM    = UTC
MEAN_ELEMENT_THEORY = SGP/SGP4

EPOCH          = 2025-12-09T04:00:01.998720
MEAN_MOTION    = 15.50610569
ECCENTRICITY   = .0001735
INCLINATION    = 43.0007
RA_OF_ASC_NODE = 146.0189
ARG_OF_PERICENTER = 280.1298
MEAN_ANOMALY   = 212.0676

EPHEMERIS_TYPE = 0
CLASSIFICATION_TYPE = U
NORAD_CAT_ID   = 66495
ELEMENT_SET_NO = 999
REV_AT_EPOCH   = 506
BSTAR          = -.1753E-2
MEAN_MOTION_DOT = -.101969E-2
MEAN_MOTION_DDOT = 0

CCSDS_OMM_VERS = 2.0
CREATION_DATE  = 
ORIGINATOR     = 

OBJECT_NAME    = STARLINK-35909
OBJECT_ID      = 2025-263M
CENTER_NAME    = EARTH
REF_FRAME      = TEME
TIME_SYSTEM    = UTC
MEAN_ELEMENT_THEORY = SGP/SGP4

EPOCH          = 2025-12-09T04:00:01.998720
MEAN_MOTION    = 15.50659724
ECCENTRICITY   = .0001729
INCLINATION    = 43.0008
RA_OF_ASC_NODE = 146.0140
ARG_OF_PERICENTER = 267.9078
MEAN_ANOMALY   = 226.1820

EPHEMERIS_TYPE = 0
CLASSIFICATION_TYPE = U
NORAD_CAT_ID   = 66496
ELEMENT_SET_NO = 999
REV_AT_EPOCH   = 506
BSTAR          = -.28479E-2
MEAN_MOTION_DOT = -.164432E-2
MEAN_MOTION_DDOT = 0

CCSDS_OMM_VERS = 2.0
CREATION_DATE  = 
ORIGINATOR     = 

OBJECT_NAME    = STARLINK-35899
OBJECT_ID      = 2025-263N
CENTER_NAME    = EARTH
REF_FRAME      = TEME
TIME_SYSTEM    = UTC
MEAN_ELEMENT_THEORY = SGP/SGP4

EPOCH          = 2025-12-09T04:00:01.998720
MEAN_MOTION    = 15.50615086
ECCENTRICITY   = .0001846
INCLINATION    = 43.0006
RA_OF_ASC_NODE = 146.0086
ARG_OF_PERICENTER = 277.2834
MEAN_ANOMALY   = 218.7446

EPHEMERIS_TYPE = 0
CLASSIFICATION_TYPE = U
NORAD_CAT_ID   = 66497
ELEMENT_SET_NO = 999
REV_AT_EPOCH   = 506
BSTAR          = -.1836E-2
MEAN_MOTION_DOT = -.106739E-2
MEAN_MOTION_DDOT = 0

CCSDS_OMM_VERS = 2.0
CREATION_DATE  = 
ORIGINATOR     = 

OBJECT_NAME    = STARLINK-35907
OBJECT_ID      = 2025-263P
CENTER_NAME    = EARTH
REF_FRAME      = TEME
TIME_SYSTEM    = UTC
MEAN_ELEMENT_THEORY = SGP/SGP4

EPOCH          = 2025-12-09T04:00:01.998720
MEAN_MOTION    = 15.50942506
ECCENTRICITY   = .0000914
INCLINATION    = 43.0004
RA_OF_ASC_NODE = 146.0034
ARG_OF_PERICENTER = 252.3636
MEAN_ANOMALY   = 245.5319

EPHEMERIS_TYPE = 0
CLASSIFICATION_TYPE = U
NORAD_CAT_ID   = 66498
ELEMENT_SET_NO = 999
REV_AT_EPOCH   = 506
BSTAR          = -.40129E-1
MEAN_MOTION_DOT = -.211574E-1
MEAN_MOTION_DDOT = 0

CCSDS_OMM_VERS = 2.0
CREATION_DATE  = 
ORIGINATOR     = 

OBJECT_NAME    = STARLINK-35816
OBJECT_ID      = 2025-263Q
CENTER_NAME    = EARTH
REF_FRAME      = TEME
TIME_SYSTEM    = UTC
MEAN_ELEMENT_THEORY = SGP/SGP4

EPOCH          = 2025-12-09T04:00:01.998720
MEAN_MOTION    = 15.50683112
ECCENTRICITY   = .0001461
INCLINATION    = 43.0005
RA_OF_ASC_NODE = 145.9951
ARG_OF_PERICENTER = 270.0217
MEAN_ANOMALY   = 231.7280

EPHEMERIS_TYPE = 0
CLASSIFICATION_TYPE = U
NORAD_CAT_ID   = 66499
ELEMENT_SET_NO = 999
REV_AT_EPOCH   = 506
BSTAR          = -.35969E-2
MEAN_MOTION_DOT = -.206651E-2
MEAN_MOTION_DDOT = 0

CCSDS_OMM_VERS = 2.0
CREATION_DATE  = 
ORIGINATOR     = 

OBJECT_NAME    = STARLINK-35894
OBJECT_ID      = 2025-263R
CENTER_NAME    = EARTH
REF_FRAME      = TEME
TIME_SYSTEM    = UTC
MEAN_ELEMENT_THEORY = SGP/SGP4

EPOCH          = 2025-12-09T04:00:01.998720
MEAN_MOTION    = 15.50642718
ECCENTRICITY   = .0001086
INCLINATION    = 43.0005
RA_OF_ASC_NODE = 146.1090
ARG_OF_PERICENTER = 284.7622
MEAN_ANOMALY   = 170.2270

EPHEMERIS_TYPE = 0
CLASSIFICATION_TYPE = U
NORAD_CAT_ID   = 66500
ELEMENT_SET_NO = 999
REV_AT_EPOCH   = 506
BSTAR          = -.20643E-2
MEAN_MOTION_DOT = -.119878E-2
MEAN_MOTION_DDOT = 0

CCSDS_OMM_VERS = 2.0
CREATION_DATE  = 
ORIGINATOR     = 

OBJECT_NAME    = STARLINK-35897
OBJECT_ID      = 2025-263S
CENTER_NAME    = EARTH
REF_FRAME      = TEME
TIME_SYSTEM    = UTC
MEAN_ELEMENT_THEORY = SGP/SGP4

EPOCH          = 2025-12-09T04:00:01.998720
MEAN_MOTION    = 15.50633433
ECCENTRICITY   = .0001869
INCLINATION    = 43.0008
RA_OF_ASC_NODE = 145.9906
ARG_OF_PERICENTER = 280.4672
MEAN_ANOMALY   = 223.2296

EPHEMERIS_TYPE = 0
CLASSIFICATION_TYPE = U
NORAD_CAT_ID   = 66501
ELEMENT_SET_NO = 999
REV_AT_EPOCH   = 506
BSTAR          = -.25258E-2
MEAN_MOTION_DOT = -.146078E-2
MEAN_MOTION_DDOT = 0

CCSDS_OMM_VERS = 2.0
CREATION_DATE  = 
ORIGINATOR     = 

OBJECT_NAME    = STARLINK-35922
OBJECT_ID      = 2025-263T
CENTER_NAME    = EARTH
REF_FRAME      = TEME
TIME_SYSTEM    = UTC
MEAN_ELEMENT_THEORY = SGP/SGP4

EPOCH          = 2025-12-09T04:00:01.998720
MEAN_MOTION    = 15.50620475
ECCENTRICITY   = .0001793
INCLINATION    = 43.0005
RA_OF_ASC_NODE = 145.9746
ARG_OF_PERICENTER = 275.3309
MEAN_ANOMALY   = 234.1119

EPHEMERIS_TYPE = 0
CLASSIFICATION_TYPE = U
NORAD_CAT_ID   = 66502
ELEMENT_SET_NO = 999
REV_AT_EPOCH   = 506
BSTAR          = -.19804E-2
MEAN_MOTION_DOT = -.115007E-2
MEAN_MOTION_DDOT = 0

